STARLINK-1434
1 15712C 20035BH  21326.12465117 -.00015933  00000-0 -10674-2 0  3267
2 15712  53.0536 238.1891 0002057  69.5959  39.0584 15.06419616    11
